{
    "links": {
        "self": "http://www.neowsapp.com/rest/v1/neo/3769818?api_key=iIulBulltgU6a56xZRHN4H3l9WmuAYTsLGpBGhQ2"
    },
    "id": "3769818",
    "neo_reference_id": "3769818",
    "name": "(2017 DQ34)",
    "designation": "2017 DQ34",
    "nasa_jpl_url": "http://ssd.jpl.nasa.gov/sbdb.cgi?sstr=3769818",
    "absolute_magnitude_h": 26.0,
    "estimated_diameter": {
        "kilometers": {
            "estimated_diameter_min": 0.0167708462,
            "estimated_diameter_max": 0.0375007522
        },
        "meters": {
            "estimated_diameter_min": 16.7708462163,
            "estimated_diameter_max": 37.5007521798
        },
        "miles": {
            "estimated_diameter_min": 0.0104209175,
            "estimated_diameter_max": 0.0233018799
        },
        "feet": {
            "estimated_diameter_min": 55.0224631002,
            "estimated_diameter_max": 123.0339677816
        }
    },
    "is_potentially_hazardous_asteroid": false,
    "close_approach_data": [
        {
            "close_approach_date": "2017-02-22",
            "close_approach_date_full": "2017-Feb-22 00:54",
            "epoch_date_close_approach": 1487724840000,
            "relative_velocity": {
                "kilometers_per_second": "13.4409677492",
                "kilometers_per_hour": "48387.4838971326",
                "miles_per_hour": "30066.1007581933"
            },
            "miss_distance": {
                "astronomical": "0.0397641343",
                "lunar": "15.4682482427",
                "kilometers": "5948629.793673941",
                "miles": "3696307.1537487458"
            },
            "orbiting_body": "Earth"
        }
    ],
    "orbital_data": {
        "orbit_id": "4",
        "orbit_determination_date": "2017-04-06 08:20:04",
        "first_observation_date": "2017-02-22",
        "last_observation_date": "2017-02-25",
        "data_arc_in_days": 3,
        "observations_used": 45,
        "orbit_uncertainty": "8",
        "minimum_orbit_intersection": ".0396741",
        "jupiter_tisserand_invariant": "4.130",
        "epoch_osculation": "2457807.5",
        "eccentricity": ".3793811748001839",
        "semi_major_axis": "1.641239124138841",
        "inclination": "22.55988933833185",
        "ascending_node_longitude": "154.0307524061625",
        "orbital_period": "767.9911557279422",
        "perihelion_distance": "1.018583897095023",
        "perihelion_argument": "343.9627460965573",
        "aphelion_distance": "2.26389435118266",
        "perihelion_time": "2457793.033610791132",
        "mean_anomaly": "6.781198033792667",
        "mean_motion": ".4687553981774349",
        "equinox": "J2000",
        "orbit_class": {
            "orbit_class_type": "AMO",
            "orbit_class_description": "Near-Earth asteroid orbits similar to that of 1221 Amor",
            "orbit_class_range": "1.017 AU < q (perihelion) < 1.3 AU"
        }
    },
    "is_sentry_object": false
}